STARLINK-32382          
1 61258U 24175R   26068.56579388 -.00001393  00000+0 -34919-4 0  9991
2 61258  53.1598 194.6837 0001075  81.8402 278.2720 15.30201487 81434
COSMOS 2588             
1 64095U 25109A   26068.81179522  .00009169  00000+0  32611-3 0  9998
2 64095  72.9704  73.5401 0005019 308.6780  51.3966 15.29122656 44425
